[{"OBJECT_NAME":"STARLINK-34775","OBJECT_ID":"2025-158C","EPOCH":"2026-03-09T14:46:32.585952","MEAN_MOTION":15.05650685,"ECCENTRICITY":0.0002956,"INCLINATION":97.601,"RA_OF_ASC_NODE":293.9965,"ARG_OF_PERICENTER":89.0893,"MEAN_ANOMALY":271.0673,"EPHEMERIS_TYPE":0,"CLASSIFICATION_TYPE":"U","NORAD_CAT_ID":64934,"ELEMENT_SET_NO":999,"REV_AT_EPOCH":3534,"BSTAR":0.00040057,"MEAN_MOTION_DOT":5.724e-5,"MEAN_MOTION_DDOT":0},{"OBJECT_NAME":"CZ-4B DEB","OBJECT_ID":"1999-057SZ","EPOCH":"2026-03-02T21:23:50.470368","MEAN_MOTION":14.9551257,"ECCENTRICITY":0.0057647,"INCLINATION":98.7518,"RA_OF_ASC_NODE":85.7766,"ARG_OF_PERICENTER":19.8773,"MEAN_ANOMALY":340.4672,"EPHEMERIS_TYPE":0,"CLASSIFICATION_TYPE":"U","NORAD_CAT_ID":39052,"ELEMENT_SET_NO":999,"REV_AT_EPOCH":72291,"BSTAR":0.0001718,"MEAN_MOTION_DOT":1.891e-5,"MEAN_MOTION_DDOT":0}]
